{
    "links": {
        "self": "http://www.neowsapp.com/rest/v1/neo/54087842?api_key=iIulBulltgU6a56xZRHN4H3l9WmuAYTsLGpBGhQ2"
    },
    "id": "54087842",
    "neo_reference_id": "54087842",
    "name": "(2020 VP5)",
    "designation": "2020 VP5",
    "nasa_jpl_url": "http://ssd.jpl.nasa.gov/sbdb.cgi?sstr=54087842",
    "absolute_magnitude_h": 23.961,
    "estimated_diameter": {
        "kilometers": {
            "estimated_diameter_min": 0.0428898944,
            "estimated_diameter_max": 0.0959047193
        },
        "meters": {
            "estimated_diameter_min": 42.8898943655,
            "estimated_diameter_max": 95.9047193491
        },
        "miles": {
            "estimated_diameter_min": 0.0266505366,
            "estimated_diameter_max": 0.0595924114
        },
        "feet": {
            "estimated_diameter_min": 140.7148810301,
            "estimated_diameter_max": 314.6480394292
        }
    },
    "is_potentially_hazardous_asteroid": false,
    "close_approach_data": [
        {
            "close_approach_date": "2020-07-03",
            "close_approach_date_full": "2020-Jul-03 00:27",
            "epoch_date_close_approach": 1593736020000,
            "relative_velocity": {
                "kilometers_per_second": "9.4641290967",
                "kilometers_per_hour": "34070.8647481094",
                "miles_per_hour": "21170.3103764017"
            },
            "miss_distance": {
                "astronomical": "0.3492605871",
                "lunar": "135.8623683819",
                "kilometers": "52248639.905109477",
                "miles": "32465799.3779137026"
            },
            "orbiting_body": "Earth"
        },
        {
            "close_approach_date": "2020-11-01",
            "close_approach_date_full": "2020-Nov-01 05:57",
            "epoch_date_close_approach": 1604210220000,
            "relative_velocity": {
                "kilometers_per_second": "11.7547083699",
                "kilometers_per_hour": "42316.9501314877",
                "miles_per_hour": "26294.1071525347"
            },
            "miss_distance": {
                "astronomical": "0.1646336122",
                "lunar": "64.0424751458",
                "kilometers": "24628837.715526014",
                "miles": "15303650.1167424332"
            },
            "orbiting_body": "Earth"
        },
        {
            "close_approach_date": "2022-07-09",
            "close_approach_date_full": "2022-Jul-09 02:17",
            "epoch_date_close_approach": 1657333020000,
            "relative_velocity": {
                "kilometers_per_second": "11.9258984978",
                "kilometers_per_hour": "42933.2345920213",
                "miles_per_hour": "26677.0423496924"
            },
            "miss_distance": {
                "astronomical": "0.3577314681",
                "lunar": "139.1575410909",
                "kilometers": "53515865.659732947",
                "miles": "33253216.9487987886"
            },
            "orbiting_body": "Earth"
        }
    ],
    "orbital_data": {
        "orbit_id": "5",
        "orbit_determination_date": "2020-11-23 05:21:51",
        "first_observation_date": "2020-11-14",
        "last_observation_date": "2020-11-23",
        "data_arc_in_days": 9,
        "observations_used": 35,
        "orbit_uncertainty": "9",
        "minimum_orbit_intersection": ".159584",
        "jupiter_tisserand_invariant": "4.285",
        "epoch_osculation": "2459169.5",
        "eccentricity": ".3497272497105178",
        "semi_major_axis": "1.56985909919606",
        "inclination": "19.4726417049844",
        "ascending_node_longitude": "54.75526360831847",
        "orbital_period": "718.4382374620146",
        "perihelion_distance": "1.020836594001191",
        "perihelion_argument": "295.3673005911132",
        "aphelion_distance": "2.118881604390928",
        "perihelion_time": "2459106.336620820254",
        "mean_anomaly": "31.65034281170316",
        "mean_motion": ".5010869149611958",
        "equinox": "J2000",
        "orbit_class": {
            "orbit_class_type": "AMO",
            "orbit_class_description": "Near-Earth asteroid orbits similar to that of 1221 Amor",
            "orbit_class_range": "1.017 AU < q (perihelion) < 1.3 AU"
        }
    },
    "is_sentry_object": false
}